{"type": "FeatureCollection", "features": [ {"type": "Feature", "properties": {"norad_id": 39544, "name": "FENGYUN 1C DEB", "group": "fengyun-1c-debris", "lat": -51.73027762831572, "lon": 28.072801206724204, "alt_km": 917.8006315887196, "timestamp": "2025-12-05T22:40:48.840581+00:00", "meta": {"OBJECT_NAME": "FENGYUN 1C DEB", "OBJECT_ID": "1999-025EWM", "EPOCH": "2025-11-19T09:11:56.449536", "MEAN_MOTION": 14.05475202, "ECCENTRICITY": 0.00550402, "INCLINATION": 98.7431, "RA_OF_ASC_NODE": 203.3482, "ARG_OF_PERICENTER": 73.9921, "MEAN_ANOMALY": 286.7301, "EPHEMERIS_TYPE": 0, "CLASSIFICATION_TYPE": "U", "NORAD_CAT_ID": 39544, "ELEMENT_SET_NO": 999, "REV_AT_EPOCH": 56527, "BSTAR": 0.00067356683, "MEAN_MOTION_DOT": 1.067e-05, "MEAN_MOTION_DDOT": 0}, "tle": {"line1": "1 39544U 99025EWM 25323.38329224  .00001067  00000+0  67357-3 0  9992", "line2": "2 39544  98.7431 203.3482 0055040  73.9921 286.7301 14.05475202565278"}}, "geometry": {"type": "Point", "coordinates": [28.072801206724204, -51.73027762831572]}}, {"type": "Feature", "properties": {"norad_id": 40688, "name": "FENGYUN 1C DEB", "group": "fengyun-1c-debris", "lat": -4.017384149507476, "lon": 130.43957004577894, "alt_km": 890.939949024003, "timestamp": "2025-12-05T22:40:48.840592+00:00", "meta": {"OBJECT_NAME": "FENGYUN 1C DEB", "OBJECT_ID": "1999-025EWU", "EPOCH": "2025-11-28T15:26:17.467872", "MEAN_MOTION": 13.83811366, "ECCENTRICITY": 0.01426841, "INCLINATION": 98.9673, "RA_OF_ASC_NODE": 122.8373, "ARG_OF_PERICENTER": 69.4473, "MEAN_ANOMALY": 292.1926, "EPHEMERIS_TYPE": 0, "CLASSIFICATION_TYPE": "U", "NORAD_CAT_ID": 40688, "ELEMENT_SET_NO": 999, "REV_AT_EPOCH": 29722, "BSTAR": 0.00038169517, "MEAN_MOTION_DOT": 4.17e-06, "MEAN_MOTION_DDOT": 0}, "tle": {"line1": "1 40688U 99025EWU 25332.64325773  .00000417  00000+0  38170-3 0  9996", "line2": "2 40688  98.9673 122.8373 0142684  69.4473 292.1926 13.83811366297227"}}, "geometry": {"type": "Point", "coordinates": [130.43957004577894, -4.017384149507476]}}, {"type": "Feature", "properties": {"norad_id": 40689, "name": "FENGYUN 1C DEB", "group": "fengyun-1c-debris", "lat": -18.949510342573646, "lon": 75.14316181415474, "alt_km": 977.3189780429348, "timestamp": "2025-12-05T22:40:48.840603+00:00", "meta": {"OBJECT_NAME": "FENGYUN 1C DEB", "OBJECT_ID": "1999-025EWV", "EPOCH": "2025-12-03T01:06:50.802912", "MEAN_MOTION": 13.64656571, "ECCENTRICITY": 0.03097255, "INCLINATION": 99.1251, "RA_OF_ASC_NODE": 255.5784, "ARG_OF_PERICENTER": 126.5569, "MEAN_ANOMALY": 236.4512, "EPHEMERIS_TYPE": 0, "CLASSIFICATION_TYPE": "U", "NORAD_CAT_ID": 40689, "ELEMENT_SET_NO": 999, "REV_AT_EPOCH": 54751, "BSTAR": 0.0014793346, "MEAN_MOTION_DOT": 1.611e-05, "MEAN_MOTION_DDOT": 0}, "tle": {"line1": "1 40689U 99025EWV 25337.04642133  .00001611  00000+0  14793-2 0  9999", "line2": "2 40689  99.1251 255.5784 0309725 126.5569 236.4512 13.64656571547511"}}, "geometry": {"type": "Point", "coordinates": [75.14316181415474, -18.949510342573646]}}, {"type": "Feature", "properties": {"norad_id": 40691, "name": "FENGYUN 1C DEB", "group": "fengyun-1c-debris", "lat": 49.07622005111342, "lon": 1.7850245878844626, "alt_km": 907.538025290035, "timestamp": "2025-12-05T22:40:48.840613+00:00", "meta": {"OBJECT_NAME": "FENGYUN 1C DEB", "OBJECT_ID": "1999-025EWX", "EPOCH": "2025-12-03T08:15:02.306016", "MEAN_MOTION": 13.89944729, "ECCENTRICITY": 0.0128434, "INCLINATION": 99.0573, "RA_OF_ASC_NODE": 9.8547, "ARG_OF_PERICENTER": 336.6089, "MEAN_ANOMALY": 22.9259, "EPHEMERIS_TYPE": 0, "CLASSIFICATION_TYPE": "U", "NORAD_CAT_ID": 40691, "ELEMENT_SET_NO": 999, "REV_AT_EPOCH": 55305, "BSTAR": 0.00023937, "MEAN_MOTION_DOT": 2.71e-06, "MEAN_MOTION_DDOT": 0}, "tle": {"line1": "1 40691U 99025EWX 25337.34377669  .00000271  00000+0  23937-3 0  9996", "line2": "2 40691  99.0573   9.8547 0128434 336.6089  22.9259 13.89944729553058"}}, "geometry": {"type": "Point", "coordinates": [1.7850245878844626, 49.07622005111342]}}, {"type": "Feature", "properties": {"norad_id": 40695, "name": "FENGYUN 1C DEB", "group": "fengyun-1c-debris", "lat": 65.35162841420039, "lon": 76.10746571504319, "alt_km": 655.9276470279774, "timestamp": "2025-12-05T22:40:48.840623+00:00", "meta": {"OBJECT_NAME": "FENGYUN 1C DEB", "OBJECT_ID": "1999-025EXB", "EPOCH": "2025-11-30T01:42:31.870080", "MEAN_MOTION": 14.50916136, "ECCENTRICITY": 0.02815501, "INCLINATION": 99.4248, "RA_OF_ASC_NODE": 90.7471, "ARG_OF_PERICENTER": 10.5794, "MEAN_ANOMALY": 350.1155, "EPHEMERIS_TYPE": 0, "CLASSIFICATION_TYPE": "U", "NORAD_CAT_ID": 40695, "ELEMENT_SET_NO": 999, "REV_AT_EPOCH": 31682, "BSTAR": 0.00020572034, "MEAN_MOTION_DOT": 1.283e-05, "MEAN_MOTION_DDOT": 0}, "tle": {"line1": "1 40695U 99025EXB 25334.07120220  .00001283  00000+0  20572-3 0  9992", "line2": "2 40695  99.4248  90.7471 0281550  10.5794 350.1155 14.50916136316823"}}, "geometry": {"type": "Point", "coordinates": [76.10746571504319, 65.35162841420039]}}, {"type": "Feature", "properties": {"norad_id": 40696, "name": "FENGYUN 1C DEB", "group": "fengyun-1c-debris", "lat": -10.914853293099798, "lon": 145.13783316176514, "alt_km": 967.8263250637747, "timestamp": "2025-12-05T22:40:48.840633+00:00", "meta": {"OBJECT_NAME": "FENGYUN 1C DEB", "OBJECT_ID": "1999-025EXC", "EPOCH": "2025-11-26T05:40:29.681760", "MEAN_MOTION": 13.96727195, "ECCENTRICITY": 0.00806572, "INCLINATION": 98.9548, "RA_OF_ASC_NODE": 317.4298, "ARG_OF_PERICENTER": 42.7994, "MEAN_ANOMALY": 317.9411, "EPHEMERIS_TYPE": 0, "CLASSIFICATION_TYPE": "U", "NORAD_CAT_ID": 40696, "ELEMENT_SET_NO": 999, "REV_AT_EPOCH": 55449, "BSTAR": 0.0001965233, "MEAN_MOTION_DOT": 2.38e-06, "MEAN_MOTION_DDOT": 0}, "tle": {"line1": "1 40696U 99025EXC 25330.23645465  .00000238  00000+0  19652-3 0  9996", "line2": "2 40696  98.9548 317.4298 0080657  42.7994 317.9411 13.96727195554498"}}, "geometry": {"type": "Point", "coordinates": [145.13783316176514, -10.914853293099798]}}, {"type": "Feature", "properties": {"norad_id": 41003, "name": "FENGYUN 1C DEB", "group": "fengyun-1c-debris", "lat": 38.24173609266321, "lon": -108.79041756717618, "alt_km": 646.7131023940665, "timestamp": "2025-12-05T22:40:48.840644+00:00", "meta": {"OBJECT_NAME": "FENGYUN 1C DEB", "OBJECT_ID": "1999-025EXH", "EPOCH": "2025-12-04T00:49:42.134016", "MEAN_MOTION": 14.71928212, "ECCENTRICITY": 0.0073367, "INCLINATION": 98.9659, "RA_OF_ASC_NODE": 256.2527, "ARG_OF_PERICENTER": 319.547, "MEAN_ANOMALY": 40.0293, "EPHEMERIS_TYPE": 0, "CLASSIFICATION_TYPE": "U", "NORAD_CAT_ID": 41003, "ELEMENT_SET_NO": 999, "REV_AT_EPOCH": 52292, "BSTAR": 0.0095392716, "MEAN_MOTION_DOT": 0.00062834, "MEAN_MOTION_DDOT": 0}, "tle": {"line1": "1 41003U 99025EXH 25338.03451544  .00062834  00000+0  95393-2 0  9993", "line2": "2 41003  98.9659 256.2527 0073367 319.5470  40.0293 14.71928212522925"}}, "geometry": {"type": "Point", "coordinates": [-108.79041756717618, 38.24173609266321]}}, {"type": "Feature", "properties": {"norad_id": 41006, "name": "FENGYUN 1C DEB", "group": "fengyun-1c-debris", "lat": -58.061888503705234, "lon": 7.988777927151968, "alt_km": 1063.4254490790618, "timestamp": "2025-12-05T22:40:48.840653+00:00", "meta": {"OBJECT_NAME": "FENGYUN 1C DEB", "OBJECT_ID": "1999-025EXL", "EPOCH": "2025-12-02T20:43:22.583712", "MEAN_MOTION": 13.85253957, "ECCENTRICITY": 0.0188796, "INCLINATION": 102.3666, "RA_OF_ASC_NODE": 204.5434, "ARG_OF_PERICENTER": 31.8016, "MEAN_ANOMALY": 329.4368, "EPHEMERIS_TYPE": 0, "CLASSIFICATION_TYPE": "U", "NORAD_CAT_ID": 41006, "ELEMENT_SET_NO": 999, "REV_AT_EPOCH": 57352, "BSTAR": 0.0034712137, "MEAN_MOTION_DOT": 4.465e-05, "MEAN_MOTION_DDOT": 0}, "tle": {"line1": "1 41006U 99025EXL 25336.86345583  .00004465  00000+0  34712-2 0  9994", "line2": "2 41006 102.3666 204.5434 0188796  31.8016 329.4368 13.85253957573522"}}, "geometry": {"type": "Point", "coordinates": [7.988777927151968, -58.061888503705234]}}, {"type": "Feature", "properties": {"norad_id": 41011, "name": "FENGYUN 1C DEB", "group": "fengyun-1c-debris", "lat": -73.68889635127574, "lon": 170.9276069377808, "alt_km": 868.1137878760883, "timestamp": "2025-12-05T22:40:48.840663+00:00", "meta": {"OBJECT_NAME": "FENGYUN 1C DEB", "OBJECT_ID": "1999-025EXR", "EPOCH": "2025-12-04T08:52:18.345792", "MEAN_MOTION": 14.42818193, "ECCENTRICITY": 0.0310776, "INCLINATION": 99.1701, "RA_OF_ASC_NODE": 22.7359, "ARG_OF_PERICENTER": 22.8881, "MEAN_ANOMALY": 338.5819, "EPHEMERIS_TYPE": 0, "CLASSIFICATION_TYPE": "U", "NORAD_CAT_ID": 41011, "ELEMENT_SET_NO": 999, "REV_AT_EPOCH": 57036, "BSTAR": 0.0011197, "MEAN_MOTION_DOT": 6.661e-05, "MEAN_MOTION_DDOT": 0}, "tle": {"line1": "1 41011U 99025EXR 25338.36965678  .00006661  00000+0  11197-2 0  9992", "line2": "2 41011  99.1701  22.7359 0310776  22.8881 338.5819 14.42818193570366"}}, "geometry": {"type": "Point", "coordinates": [170.9276069377808, -73.68889635127574]}}, {"type": "Feature", "properties": {"norad_id": 41018, "name": "FENGYUN 1C DEB", "group": "fengyun-1c-debris", "lat": -76.59395603929602, "lon": -28.38021921457817, "alt_km": 1247.987119345721, "timestamp": "2025-12-05T22:40:48.840673+00:00", "meta": {"OBJECT_NAME": "FENGYUN 1C DEB", "OBJECT_ID": "1999-025EXY", "EPOCH": "2025-11-14T13:55:42.109536", "MEAN_MOTION": 13.52269451, "ECCENTRICITY": 0.03030631, "INCLINATION": 99.9325, "RA_OF_ASC_NODE": 262.8906, "ARG_OF_PERICENTER": 189.0805, "MEAN_ANOMALY": 170.4772, "EPHEMERIS_TYPE": 0, "CLASSIFICATION_TYPE": "U", "NORAD_CAT_ID": 41018, "ELEMENT_SET_NO": 999, "REV_AT_EPOCH": 87794, "BSTAR": 0.0023936359, "MEAN_MOTION_DOT": 2.062e-05, "MEAN_MOTION_DDOT": 0}, "tle": {"line1": "1 41018U 99025EXY 25318.58034849  .00002062  00000+0  23936-2 0  9993", "line2": "2 41018  99.9325 262.8906 0303063 189.0805 170.4772 13.52269451877943"}}, "geometry": {"type": "Point", "coordinates": [-28.38021921457817, -76.59395603929602]}}]}